{
  "type": "FeatureCollection",
  "features": [
    {
      "type": "Feature",
      "properties": {
        "norad_id": 31036,
        "name": "FENGYUN 1C DEB",
        "group": "fengyun-1c-debris",
        "lat": 54.09516469941096,
        "lon": -73.61480511764731,
        "alt_km": 795.4355297071761,
        "timestamp": "2025-12-13T08:49:15.966535+00:00",
        "meta_object_name": "FENGYUN 1C DEB",
        "meta_object_id": "1999-025BEE",
        "meta_epoch": "2025-12-11T18:50:10.297824",
        "meta_mean_motion": 14.49069989,
        "meta_eccentricity": 0.01375572,
        "meta_inclination": 98.9153,
        "meta_ra_of_asc_node": 92.1918,
        "meta_arg_of_pericenter": 267.4873,
        "meta_mean_anomaly": 246.7592,
        "meta_ephemeris_type": 0,
        "meta_classification_type": "U",
        "meta_norad_cat_id": 31036,
        "meta_element_set_no": 999,
        "meta_rev_at_epoch": 57293,
        "meta_bstar": 0.0003752014,
        "meta_mean_motion_dot": 1.549e-05,
        "meta_mean_motion_ddot": 0,
        "tle_line1": "1 31036U 99025BEE 25345.78484141  .00001549  00000+0  37520-3 0  9992",
        "tle_line2": "2 31036  98.9153  92.1918 0137557 267.4873 246.7592 14.49069989572935"
      },
      "geometry": {
        "type": "Point",
        "coordinates": [
          -73.61480511764731,
          54.09516469941096
        ]
      }
    },
    {
      "type": "Feature",
      "properties": {
        "norad_id": 31038,
        "name": "FENGYUN 1C DEB",
        "group": "fengyun-1c-debris",
        "lat": -77.87633753848199,
        "lon": 119.0629692464763,
        "alt_km": 709.1326635573796,
        "timestamp": "2025-12-13T08:49:15.966545+00:00",
        "meta_object_name": "FENGYUN 1C DEB",
        "meta_object_id": "1999-025BEG",
        "meta_epoch": "2025-12-12T16:35:25.388448",
        "meta_mean_motion": 14.45824671,
        "meta_eccentricity": 0.00840147,
        "meta_inclination": 99.0134,
        "meta_ra_of_asc_node": 70.7062,
        "meta_arg_of_pericenter": 228.5899,
        "meta_mean_anomaly": 130.8049,
        "meta_ephemeris_type": 0,
        "meta_classification_type": "U",
        "meta_norad_cat_id": 31038,
        "meta_element_set_no": 999,
        "meta_rev_at_epoch": 98234,
        "meta_bstar": 0.00097560468,
        "meta_mean_motion_dot": 3.565e-05,
        "meta_mean_motion_ddot": 0,
        "tle_line1": "1 31038U 99025BEG 25346.69126607  .00003565  00000+0  97560-3 0  9995",
        "tle_line2": "2 31038  99.0134  70.7062 0084014 228.5899 130.8049 14.45824671982348"
      },
      "geometry": {
        "type": "Point",
        "coordinates": [
          119.0629692464763,
          -77.87633753848199
        ]
      }
    },
    {
      "type": "Feature",
      "properties": {
        "norad_id": 31040,
        "name": "FENGYUN 1C DEB",
        "group": "fengyun-1c-debris",
        "lat": -50.268380825329444,
        "lon": 146.63642502355054,
        "alt_km": 804.9430567526961,
        "timestamp": "2025-12-13T08:49:15.966556+00:00",
        "meta_object_name": "FENGYUN 1C DEB",
        "meta_object_id": "1999-025BEJ",
        "meta_epoch": "2025-12-12T10:27:04.417920",
        "meta_mean_motion": 14.17671074,
        "meta_eccentricity": 0.00622607,
        "meta_inclination": 98.6581,
        "meta_ra_of_asc_node": 336.2915,
        "meta_arg_of_pericenter": 194.9711,
        "meta_mean_anomaly": 321.2826,
        "meta_ephemeris_type": 0,
        "meta_classification_type": "U",
        "meta_norad_cat_id": 31040,
        "meta_element_set_no": 999,
        "meta_rev_at_epoch": 96702,
        "meta_bstar": 0.00044682649,
        "meta_mean_motion_dot": 8.84e-06,
        "meta_mean_motion_ddot": 0,
        "tle_line1": "1 31040U 99025BEJ 25346.43546780  .00000884  00000+0  44683-3 0  9997",
        "tle_line2": "2 31040  98.6581 336.2915 0062260 194.9711 321.2826 14.17671074967020"
      },
      "geometry": {
        "type": "Point",
        "coordinates": [
          146.63642502355054,
          -50.268380825329444
        ]
      }
    },
    {
      "type": "Feature",
      "properties": {
        "norad_id": 31041,
        "name": "FENGYUN 1C DEB",
        "group": "fengyun-1c-debris",
        "lat": 68.65916776675724,
        "lon": -139.44406885246542,
        "alt_km": 880.460655927558,
        "timestamp": "2025-12-13T08:49:15.966566+00:00",
        "meta_object_name": "FENGYUN 1C DEB",
        "meta_object_id": "1999-025BEK",
        "meta_epoch": "2025-12-12T08:35:44.509056",
        "meta_mean_motion": 14.17833853,
        "meta_eccentricity": 0.00868905,
        "meta_inclination": 99.2057,
        "meta_ra_of_asc_node": 14.9864,
        "meta_arg_of_pericenter": 321.3996,
        "meta_mean_anomaly": 38.0986,
        "meta_ephemeris_type": 0,
        "meta_classification_type": "U",
        "meta_norad_cat_id": 31041,
        "meta_element_set_no": 999,
        "meta_rev_at_epoch": 95484,
        "meta_bstar": 0.0034381576,
        "meta_mean_motion_dot": 7.244e-05,
        "meta_mean_motion_ddot": 0,
        "tle_line1": "1 31041U 99025BEK 25346.35815404  .00007244  00000+0  34382-2 0  9992",
        "tle_line2": "2 31041  99.2057  14.9864 0086890 321.3996  38.0986 14.17833853954846"
      },
      "geometry": {
        "type": "Point",
        "coordinates": [
          -139.44406885246542,
          68.65916776675724
        ]
      }
    },
    {
      "type": "Feature",
      "properties": {
        "norad_id": 31043,
        "name": "FENGYUN 1C DEB",
        "group": "fengyun-1c-debris",
        "lat": 79.0180336851666,
        "lon": -122.18757431496924,
        "alt_km": 859.4660256541229,
        "timestamp": "2025-12-13T08:49:15.966576+00:00",
        "meta_object_name": "FENGYUN 1C DEB",
        "meta_object_id": "1999-025BEM",
        "meta_epoch": "2025-12-12T23:58:56.546112",
        "meta_mean_motion": 14.08429162,
        "meta_eccentricity": 0.0041356,
        "meta_inclination": 98.7644,
        "meta_ra_of_asc_node": 4.8011,
        "meta_arg_of_pericenter": 3.4263,
        "meta_mean_anomaly": 26.4552,
        "meta_ephemeris_type": 0,
        "meta_classification_type": "U",
        "meta_norad_cat_id": 31043,
        "meta_element_set_no": 999,
        "meta_rev_at_epoch": 95991,
        "meta_bstar": 0.00070435853,
        "meta_mean_motion_dot": 1.174e-05,
        "meta_mean_motion_ddot": 0,
        "tle_line1": "1 31043U 99025BEM 25346.99926558  .00001174  00000+0  70436-3 0  9994",
        "tle_line2": "2 31043  98.7644   4.8011 0041356   3.4263  26.4552 14.08429162959916"
      },
      "geometry": {
        "type": "Point",
        "coordinates": [
          -122.18757431496924,
          79.0180336851666
        ]
      }
    },
    {
      "type": "Feature",
      "properties": {
        "norad_id": 31046,
        "name": "FENGYUN 1C DEB",
        "group": "fengyun-1c-debris",
        "lat": 38.20574715831196,
        "lon": 99.96971856103713,
        "alt_km": 662.6057707880409,
        "timestamp": "2025-12-13T08:49:15.966586+00:00",
        "meta_object_name": "FENGYUN 1C DEB",
        "meta_object_id": "1999-025BEQ",
        "meta_epoch": "2025-12-12T06:39:42.787584",
        "meta_mean_motion": 14.63771809,
        "meta_eccentricity": 0.00466016,
        "meta_inclination": 98.9676,
        "meta_ra_of_asc_node": 105.9242,
        "meta_arg_of_pericenter": 104.6419,
        "meta_mean_anomaly": 314.2186,
        "meta_ephemeris_type": 0,
        "meta_classification_type": "U",
        "meta_norad_cat_id": 31046,
        "meta_element_set_no": 999,
        "meta_rev_at_epoch": 96636,
        "meta_bstar": 0.0062637298,
        "meta_mean_motion_dot": 0.00033276,
        "meta_mean_motion_ddot": 0,
        "tle_line1": "1 31046U 99025BEQ 25346.27757856  .00033276  00000+0  62637-2 0  9992",
        "tle_line2": "2 31046  98.9676 105.9242 0046601 104.6419 314.2186 14.63771809966367"
      },
      "geometry": {
        "type": "Point",
        "coordinates": [
          99.96971856103713,
          38.20574715831196
        ]
      }
    },
    {
      "type": "Feature",
      "properties": {
        "norad_id": 31047,
        "name": "FENGYUN 1C DEB",
        "group": "fengyun-1c-debris",
        "lat": 76.28656055848785,
        "lon": -54.082558592616145,
        "alt_km": 841.0975392839655,
        "timestamp": "2025-12-13T08:49:15.966596+00:00",
        "meta_object_name": "FENGYUN 1C DEB",
        "meta_object_id": "1999-025BER",
        "meta_epoch": "2025-12-12T05:34:00.054912",
        "meta_mean_motion": 14.13841318,
        "meta_eccentricity": 0.00255963,
        "meta_inclination": 98.7004,
        "meta_ra_of_asc_node": 343.6788,
        "meta_arg_of_pericenter": 179.2346,
        "meta_mean_anomaly": 243.6594,
        "meta_ephemeris_type": 0,
        "meta_classification_type": "U",
        "meta_norad_cat_id": 31047,
        "meta_element_set_no": 999,
        "meta_rev_at_epoch": 96352,
        "meta_bstar": 0.00060318894,
        "meta_mean_motion_dot": 1.103e-05,
        "meta_mean_motion_ddot": 0,
        "tle_line1": "1 31047U 99025BER 25346.23194508  .00001103  00000+0  60319-3 0  9998",
        "tle_line2": "2 31047  98.7004 343.6788 0025596 179.2346 243.6594 14.13841318963525"
      },
      "geometry": {
        "type": "Point",
        "coordinates": [
          -54.082558592616145,
          76.28656055848785
        ]
      }
    }
  ]
}